H1 CPF 01  gfz 2021 06 21 12  6722 tandemx   
H2 1003001  6202 36605    2021 06 21 12 59 42 2021 06 26 00 00 42   120 1 1  0 0 0
H9
10 0 59387  26622.000000  0    2427857.677  -1778179.738  -6203761.402
10 0 59387  26742.000000  0    1604221.128  -1533372.540  -6528401.934
10 0 59387  26862.000000  0     757439.275  -1247385.365  -6739139.594
10 0 59387  26982.000000  0     -97132.673   -924911.357  -6832349.293
10 0 59387  27102.000000  0    -944107.328   -571535.741  -6806429.038
10 0 59387  27222.000000  0   -1768335.471   -193641.272  -6661824.632
10 0 59387  27342.000000  0   -2555171.034    201704.443  -6401022.098
10 0 59387  27462.000000  0   -3290725.056    606876.890  -6028509.022
10 0 59387  27582.000000  0   -3962107.257   1013837.098  -5550706.637
10 0 59387  27702.000000  0   -4557653.005   1414286.093  -4975870.047
10 0 59387  27822.000000  0   -5067130.429   1799830.139  -4313958.150
10 0 59387  27942.000000  0   -5481924.199   2162154.063  -3576471.305
10 0 59387  28062.000000  0   -5795190.493   2493197.045  -2776260.162
10 0 59387  28182.000000  0   -6001981.394   2785328.629  -1927307.743
10 0 59387  28302.000000  0   -6099334.143   3031520.791  -1044486.951
10 0 59387  28422.000000  0   -6086322.092   3225511.866   -143297.804
10 0 59387  28542.000000  0   -5964065.481   3361957.231    760410.871
10 0 59387  28662.000000  0   -5735699.570   3436562.376   1650729.092
10 0 59387  28782.000000  0   -5406301.593   3446195.685   2511974.792
10 0 59387  28902.000000  0   -4982778.845   3388977.243   3328978.315
10 0 59387  29022.000000  0   -4473721.183   3264341.595   4087356.967
10 0 59387  29142.000000  0   -3889220.604   3073072.476   4773772.867
10 0 59387  29262.000000  0   -3240664.685   2817309.628   5376168.149
10 0 59387  29382.000000  0   -2540507.939   2500528.745   5883976.226
10 0 59387  29502.000000  0   -1802025.670   2127493.428   6288303.364
10 0 59387  29622.000000  0   -1039056.723   1704180.956   6582078.677
10 0 59387  29742.000000  0    -265741.560   1237684.049   6760170.059
10 0 59387  29862.000000  0     503739.405    736090.227   6819468.450
10 0 59387  29982.000000  0    1255425.279    208341.208   6758938.498
10 0 59387  30102.000000  0    1975826.760   -335925.774   6579635.537
10 0 59387  30222.000000  0    2652167.449   -886553.398   6284689.174
10 0 59387  30342.000000  0    3272611.197  -1433052.933   5879252.802
10 0 59387  30462.000000  0    3826472.591  -1964803.667   5370419.225
10 0 59387  30582.000000  0    4304405.089  -2471259.494   4767101.600
10 0 59387  30702.000000  0    4698564.163  -2942158.990   4079883.561
10 0 59387  30822.000000  0    5002743.382  -3367736.046   3320838.161
10 0 59387  30942.000000  0    5212479.406  -3738924.725   2503316.457
10 0 59387  31062.000000  0    5325121.433  -4047553.412   1641710.169
10 0 59387  31182.000000  0    5339864.167  -4286524.725    751194.153
10 0 59387  31302.000000  0    5257744.178  -4449975.493   -152547.624
10 0 59387  31422.000000  0    5081598.886  -4533413.485  -1053606.704
10 0 59387  31542.000000  0    4815988.671  -4533826.039  -1936139.374
10 0 59387  31662.000000  0    4467084.429  -4449758.449  -2784653.263
10 0 59387  31782.000000  0    4042523.980  -4281360.365  -3584284.690
10 0 59387  31902.000000  0    3551241.538  -4030399.454  -4321061.538
10 0 59387  32022.000000  0    3003274.801  -3700242.380  -4982145.809
10 0 59387  32142.000000  0    2409554.533  -3295804.749  -5556051.684
10 0 59387  32262.000000  0    1781683.274  -2823472.004  -6032835.080
10 0 59387  32382.000000  0    1131708.244  -2290994.642  -6404255.656
10 0 59387  32502.000000  0     471890.355  -1707357.350  -6663909.680
10 0 59387  32622.000000  0    -185524.793  -1082624.979  -6807329.501
10 0 59387  32742.000000  0    -828529.270   -427769.939  -6832050.967
10 0 59387  32862.000000  0   -1445566.433    245516.655  -6737650.685
10 0 59387  32982.000000  0   -2025733.950    925028.389  -6525751.876
10 0 59387  33102.000000  0   -2558971.797   1598259.103  -6199999.444
10 0 59387  33222.000000  0   -3036233.639   2252627.276  -5766004.324
10 0 59387  33342.000000  0   -3449640.364   2875707.213  -5231257.843
10 0 59387  33462.000000  0   -3792613.544   3455463.980  -4605014.475
10 0 59387  33582.000000  0   -4059985.447   3980486.947  -3898142.003
10 0 59387  33702.000000  0   -4248081.356   4440217.097  -3122941.743
10 0 59387  33822.000000  0   -4354773.833   4825164.059  -2292942.190
10 0 59387  33942.000000  0   -4379508.190   5127106.994  -1422666.846
10 0 59387  34062.000000  0   -4323297.416   5339275.583   -527380.541
10 0 59387  34182.000000  0   -4188684.529   5456505.221    377183.616
10 0 59387  34302.000000  0   -3979673.217   5475360.129   1275107.147
10 0 59387  34422.000000  0   -3701629.305   5394224.135   2150576.059
10 0 59387  34542.000000  0   -3361153.562   5213352.492   2988169.881
10 0 59387  34662.000000  0   -2965928.834   4934885.247   3773140.796
10 0 59387  34782.000000  0   -2524548.390   4562823.496   4491677.951
10 0 59387  34902.000000  0   -2046328.580   4102968.358   5131153.314
10 0 59387  35022.000000  0   -1541110.881   3562824.058   5680343.683
10 0 59387  35142.000000  0   -1019057.292   2951467.897   6129624.609
10 0 59387  35262.000000  0    -490444.839   2279390.463   6471133.291
10 0 59387  35382.000000  0      34536.140   1558310.991   6698899.359
10 0 59387  35502.000000  0     545977.931    800970.081   6808944.370
10 0 59387  35622.000000  0    1034441.813     20903.328   6799346.022
10 0 59387  35742.000000  0    1491131.134   -767799.511   6670270.071
10 0 59387  35862.000000  0    1908049.331  -1550748.728   6423968.296
10 0 59387  35982.000000  0    2278140.253  -2313516.402   6064742.043
10 0 59387  36102.000000  0    2595409.148  -3041903.282   5598872.467
10 0 59387  36222.000000  0    2855021.861  -3722205.483   5034515.997
10 0 59387  36342.000000  0    3053379.943  -4341475.886   4381567.220
10 0 59387  36462.000000  0    3188171.758  -4887776.743   3651490.431
10 0 59387  36582.000000  0    3258396.889  -5350416.600   2857120.163
10 0 59387  36702.000000  0    3264363.781  -5720166.986   2012435.342
10 0 59387  36822.000000  0    3207659.240  -5989452.960   1132309.696
10 0 59387  36942.000000  0    3091091.776  -6152511.750    232244.387
10 0 59387  37062.000000  0    2918610.561  -6205517.741   -671911.532
10 0 59387  37182.000000  0    2695199.872  -6146669.457  -1564250.625
10 0 59387  37302.000000  0    2426751.963  -5976232.975  -2429095.313
10 0 59387  37422.000000  0    2119923.739  -5696545.758  -3251280.053
10 0 59387  37542.000000  0    1781977.965  -5311978.201  -4016422.698
10 0 59387  37662.000000  0    1420615.895  -4828853.315  -4711175.492
10 0 59387  37782.000000  0    1043806.566  -4255330.827  -5323453.063
10 0 59387  37902.000000  0     659615.295  -3601259.067  -5842635.260
10 0 59387  38022.000000  0     276035.008  -2877996.975  -6259741.471
10 0 59387  38142.000000  0     -99175.902  -2098211.124  -6567574.360
10 0 59387  38262.000000  0    -458646.064  -1275651.808  -6760832.843
10 0 59387  38382.000000  0    -795531.140   -424911.990  -6836194.257
10 0 59387  38502.000000  0   -1103639.861    438827.794  -6792364.835
10 0 59387  38622.000000  0   -1377544.904   1300063.415  -6630098.486
10 0 59387  38742.000000  0   -1612676.200   2143238.348  -6352185.094
10 0 59387  38862.000000  0   -1805395.802   2953017.493  -5963408.445
10 0 59387  38982.000000  0   -1953054.368   3714562.582  -5470473.570
10 0 59387  39102.000000  0   -2054026.972   4413803.002  -4881902.038
10 0 59387  39222.000000  0   -2107728.802   5037699.140  -4207896.353
10 0 59387  39342.000000  0   -2114609.236   5574491.750  -3460172.370
10 0 59387  39462.000000  0   -2076123.742   6013931.313  -2651763.502
10 0 59387  39582.000000  0   -1994684.374   6347484.202  -1796799.471
10 0 59387  39702.000000  0   -1873590.266   6568509.663   -910260.251
10 0 59387  39822.000000  0   -1716938.664   6672401.338     -7712.085
10 0 59387  39942.000000  0   -1529518.554   6656692.949    894970.468
10 0 59387  40062.000000  0   -1316689.270   6521120.611   1781894.859
10 0 59387  40182.000000  0   -1084246.425   6267636.378   2637440.840
10 0 59387  40302.000000  0    -838279.851   5900378.030   3446542.708
10 0 59387  40422.000000  0    -585027.419   5425596.892   4194959.997
10 0 59387  40542.000000  0    -330728.513   4851544.844   4869533.575
10 0 59387  40662.000000  0     -81478.538   4188317.995   5458418.867
10 0 59387  40782.000000  0     156909.699   3447670.321   5951288.957
10 0 59387  40902.000000  0     379034.469   2642797.372   6339512.985
10 0 59387  41022.000000  0     580021.985   1788094.055   6616300.977
10 0 59387  41142.000000  0     755629.179    898892.979   6776816.908
10 0 59387  41262.000000  0     902330.295     -8812.733   6818257.271
10 0 59387  41382.000000  0    1017386.176   -918655.876   6739897.272
10 0 59387  41502.000000  0    1098895.039  -1814190.119   6543103.759
10 0 59387  41622.000000  0    1145824.023  -2679186.997   6231313.237
10 0 59387  41742.000000  0    1158020.956  -3497931.590   5809975.812
10 0 59387  41862.000000  0    1136205.409  -4255510.463   5286463.573
10 0 59387  41982.000000  0    1081941.325  -4938085.944   4669947.118
10 0 59387  42102.000000  0     997590.530  -5533155.362   3971241.904
10 0 59387  42222.000000  0     886247.699  -6029790.310   3202622.555
10 0 59387  42342.000000  0     751658.299  -6418847.397   2377607.628
10 0 59387  42462.000000  0     598120.221  -6693145.913   1510720.266
10 0 59387  42582.000000  0     430372.471  -6847608.778    617228.817
10 0 59387  42702.000000  0     253473.262  -6879364.462   -287129.563
10 0 59387  42822.000000  0      72669.842  -6787801.752  -1186437.070
10 0 59387  42942.000000  0    -106734.687  -6574577.261  -2064884.549
10 0 59387  43062.000000  0    -279514.663  -6243578.586  -2907055.945
99
